[{"OBJECT_NAME":"STARLINK-34172","OBJECT_ID":"2025-113D","EPOCH":"2026-03-26T12:04:21.468000","MEAN_MOTION":15.30209792,"ECCENTRICITY":0.000193,"INCLINATION":53.1615,"RA_OF_ASC_NODE":12.7275,"ARG_OF_PERICENTER":90.1982,"MEAN_ANOMALY":269.924,"EPHEMERIS_TYPE":0,"CLASSIFICATION_TYPE":"U","NORAD_CAT_ID":64173,"ELEMENT_SET_NO":999,"REV_AT_EPOCH":4760,"BSTAR":0.00097414,"MEAN_MOTION_DOT":0.00028612,"MEAN_MOTION_DDOT":0},{"OBJECT_NAME":"STARLINK-34202","OBJECT_ID":"2025-113E","EPOCH":"2026-03-26T04:49:02.044704","MEAN_MOTION":15.30208543,"ECCENTRICITY":0.00012841,"INCLINATION":53.1623,"RA_OF_ASC_NODE":14.3973,"ARG_OF_PERICENTER":100.9721,"MEAN_ANOMALY":259.1424,"EPHEMERIS_TYPE":0,"CLASSIFICATION_TYPE":"U","NORAD_CAT_ID":64174,"ELEMENT_SET_NO":999,"REV_AT_EPOCH":4759,"BSTAR":0.00053516417,"MEAN_MOTION_DOT":0.00015528,"MEAN_MOTION_DDOT":0},{"OBJECT_NAME":"STARLINK-34231","OBJECT_ID":"2025-113F","EPOCH":"2026-03-26T02:03:43.322112","MEAN_MOTION":15.30197325,"ECCENTRICITY":0.00010901,"INCLINATION":53.1611,"RA_OF_ASC_NODE":15.1036,"ARG_OF_PERICENTER":67.7858,"MEAN_ANOMALY":292.3258,"EPHEMERIS_TYPE":0,"CLASSIFICATION_TYPE":"U","NORAD_CAT_ID":64175,"ELEMENT_SET_NO":999,"REV_AT_EPOCH":4757,"BSTAR":0.00093910384,"MEAN_MOTION_DOT":0.00027555,"MEAN_MOTION_DDOT":0},{"OBJECT_NAME":"STARLINK-34191","OBJECT_ID":"2025-113G","EPOCH":"2026-03-26T02:20:16.528992","MEAN_MOTION":15.30214251,"ECCENTRICITY":0.00014044,"INCLINATION":53.16,"RA_OF_ASC_NODE":14.4606,"ARG_OF_PERICENTER":75.3685,"MEAN_ANOMALY":284.7471,"EPHEMERIS_TYPE":0,"CLASSIFICATION_TYPE":"U","NORAD_CAT_ID":64176,"ELEMENT_SET_NO":999,"REV_AT_EPOCH":4758,"BSTAR":0.00058550922,"MEAN_MOTION_DOT":0.00017029,"MEAN_MOTION_DDOT":0},{"OBJECT_NAME":"STARLINK-34164","OBJECT_ID":"2025-113H","EPOCH":"2026-03-26T05:22:27.897600","MEAN_MOTION":15.30216378,"ECCENTRICITY":0.0001165,"INCLINATION":53.1603,"RA_OF_ASC_NODE":14.5457,"ARG_OF_PERICENTER":86.4254,"MEAN_ANOMALY":273.688,"EPHEMERIS_TYPE":0,"CLASSIFICATION_TYPE":"U","NORAD_CAT_ID":64177,"ELEMENT_SET_NO":999,"REV_AT_EPOCH":4759,"BSTAR":0.00065788,"MEAN_MOTION_DOT":0.00019185,"MEAN_MOTION_DDOT":0},{"OBJECT_NAME":"STARLINK-34227","OBJECT_ID":"2025-113J","EPOCH":"2026-03-26T01:45:30.601440","MEAN_MOTION":15.30201864,"ECCENTRICITY":0.00012979,"INCLINATION":53.1619,"RA_OF_ASC_NODE":15.0247,"ARG_OF_PERICENTER":85.0081,"MEAN_ANOMALY":275.1068,"EPHEMERIS_TYPE":0,"CLASSIFICATION_TYPE":"U","NORAD_CAT_ID":64178,"ELEMENT_SET_NO":999,"REV_AT_EPOCH":4757,"BSTAR":0.00089467734,"MEAN_MOTION_DOT":0.00026234,"MEAN_MOTION_DDOT":0},{"OBJECT_NAME":"STARLINK-34194","OBJECT_ID":"2025-113K","EPOCH":"2026-03-26T05:35:58.796160","MEAN_MOTION":15.30219386,"ECCENTRICITY":0.0001221,"INCLINATION":53.1604,"RA_OF_ASC_NODE":13.8923,"ARG_OF_PERICENTER":94.278,"MEAN_ANOMALY":265.8361,"EPHEMERIS_TYPE":0,"CLASSIFICATION_TYPE":"U","NORAD_CAT_ID":64179,"ELEMENT_SET_NO":999,"REV_AT_EPOCH":4760,"BSTAR":0.0010027,"MEAN_MOTION_DOT":0.00029475,"MEAN_MOTION_DDOT":0},{"OBJECT_NAME":"STARLINK-34000","OBJECT_ID":"2025-113L","EPOCH":"2026-03-26T12:22:35.023296","MEAN_MOTION":15.3022277,"ECCENTRICITY":0.0001521,"INCLINATION":53.1651,"RA_OF_ASC_NODE":12.8048,"ARG_OF_PERICENTER":98.1122,"MEAN_ANOMALY":262.0051,"EPHEMERIS_TYPE":0,"CLASSIFICATION_TYPE":"U","NORAD_CAT_ID":64180,"ELEMENT_SET_NO":999,"REV_AT_EPOCH":4760,"BSTAR":0.001065,"MEAN_MOTION_DOT":0.00031339,"MEAN_MOTION_DDOT":0},{"OBJECT_NAME":"STARLINK-33917","OBJECT_ID":"2025-113M","EPOCH":"2026-03-26T05:10:18.406848","MEAN_MOTION":15.30205937,"ECCENTRICITY":0.0001185,"INCLINATION":53.1618,"RA_OF_ASC_NODE":14.4884,"ARG_OF_PERICENTER":61.5093,"MEAN_ANOMALY":298.6027,"EPHEMERIS_TYPE":0,"CLASSIFICATION_TYPE":"U","NORAD_CAT_ID":64181,"ELEMENT_SET_NO":999,"REV_AT_EPOCH":4759,"BSTAR":0.00095984,"MEAN_MOTION_DOT":0.00028182,"MEAN_MOTION_DDOT":0},{"OBJECT_NAME":"STARLINK-34131","OBJECT_ID":"2025-113N","EPOCH":"2026-03-26T04:50:32.623008","MEAN_MOTION":15.30243042,"ECCENTRICITY":0.00012946,"INCLINATION":53.1619,"RA_OF_ASC_NODE":14.3988,"ARG_OF_PERICENTER":89.9858,"MEAN_ANOMALY":270.1291,"EPHEMERIS_TYPE":0,"CLASSIFICATION_TYPE":"U","NORAD_CAT_ID":64182,"ELEMENT_SET_NO":999,"REV_AT_EPOCH":4755,"BSTAR":0.0011832958,"MEAN_MOTION_DOT":0.00034898,"MEAN_MOTION_DDOT":0},{"OBJECT_NAME":"STARLINK-34188","OBJECT_ID":"2025-113P","EPOCH":"2026-03-26T02:05:14.585568","MEAN_MOTION":15.30188708,"ECCENTRICITY":0.00013746,"INCLINATION":53.1616,"RA_OF_ASC_NODE":15.1117,"ARG_OF_PERICENTER":85.1267,"MEAN_ANOMALY":274.9891,"EPHEMERIS_TYPE":0,"CLASSIFICATION_TYPE":"U","NORAD_CAT_ID":64183,"ELEMENT_SET_NO":999,"REV_AT_EPOCH":4757,"BSTAR":0.00074025185,"MEAN_MOTION_DOT":0.00021621,"MEAN_MOTION_DDOT":0},{"OBJECT_NAME":"STARLINK-34197","OBJECT_ID":"2025-113Q","EPOCH":"2026-03-26T05:17:54.557376","MEAN_MOTION":15.30198445,"ECCENTRICITY":0.0001041,"INCLINATION":53.1608,"RA_OF_ASC_NODE":14.5265,"ARG_OF_PERICENTER":85.6007,"MEAN_ANOMALY":274.5112,"EPHEMERIS_TYPE":0,"CLASSIFICATION_TYPE":"U","NORAD_CAT_ID":64184,"ELEMENT_SET_NO":999,"REV_AT_EPOCH":4759,"BSTAR":0.00075041,"MEAN_MOTION_DOT":0.0002193,"MEAN_MOTION_DDOT":0},{"OBJECT_NAME":"STARLINK-34063","OBJECT_ID":"2025-113R","EPOCH":"2026-03-26T04:58:09.120864","MEAN_MOTION":15.30202103,"ECCENTRICITY":0.000143,"INCLINATION":53.1619,"RA_OF_ASC_NODE":14.4337,"ARG_OF_PERICENTER":93.5646,"MEAN_ANOMALY":266.5518,"EPHEMERIS_TYPE":0,"CLASSIFICATION_TYPE":"U","NORAD_CAT_ID":64185,"ELEMENT_SET_NO":999,"REV_AT_EPOCH":4759,"BSTAR":0.0011492,"MEAN_MOTION_DOT":0.00033834,"MEAN_MOTION_DDOT":0},{"OBJECT_NAME":"STARLINK-34200","OBJECT_ID":"2025-113S","EPOCH":"2026-03-26T12:13:28.567488","MEAN_MOTION":15.30213317,"ECCENTRICITY":0.0001983,"INCLINATION":53.1623,"RA_OF_ASC_NODE":12.7637,"ARG_OF_PERICENTER":82.247,"MEAN_ANOMALY":277.8756,"EPHEMERIS_TYPE":0,"CLASSIFICATION_TYPE":"U","NORAD_CAT_ID":64186,"ELEMENT_SET_NO":999,"REV_AT_EPOCH":4764,"BSTAR":0.00094418,"MEAN_MOTION_DOT":0.00027721,"MEAN_MOTION_DDOT":0},{"OBJECT_NAME":"STARLINK-33934","OBJECT_ID":"2025-113T","EPOCH":"2026-03-26T05:04:13.915488","MEAN_MOTION":15.30200811,"ECCENTRICITY":0.0001393,"INCLINATION":53.1621,"RA_OF_ASC_NODE":14.463,"ARG_OF_PERICENTER":78.0102,"MEAN_ANOMALY":282.1055,"EPHEMERIS_TYPE":0,"CLASSIFICATION_TYPE":"U","NORAD_CAT_ID":64187,"ELEMENT_SET_NO":999,"REV_AT_EPOCH":4755,"BSTAR":0.0010626,"MEAN_MOTION_DOT":0.00031245,"MEAN_MOTION_DDOT":0},{"OBJECT_NAME":"STARLINK-33929","OBJECT_ID":"2025-113U","EPOCH":"2026-03-26T01:53:05.202816","MEAN_MOTION":15.3021412,"ECCENTRICITY":0.00016836,"INCLINATION":53.1623,"RA_OF_ASC_NODE":15.0535,"ARG_OF_PERICENTER":92.7801,"MEAN_ANOMALY":267.3393,"EPHEMERIS_TYPE":0,"CLASSIFICATION_TYPE":"U","NORAD_CAT_ID":64188,"ELEMENT_SET_NO":999,"REV_AT_EPOCH":4757,"BSTAR":0.00077762701,"MEAN_MOTION_DOT":0.00022753,"MEAN_MOTION_DDOT":0}]
