STARLINK-34172          
1 64173U 25113D   26085.50302625  .00028612  00000+0  97414-3 0  9993
2 64173  53.1615  12.7275 0001930  90.1982 269.9240 15.30209792 47607
STARLINK-34202          
1 64174U 25113E   26085.20071811  .00015528  00000+0  53516-3 0  9998
2 64174  53.1623  14.3973 0001284 100.9721 259.1424 15.30208543 47599
STARLINK-34231          
1 64175U 25113F   26085.08591808  .00027555  00000+0  93910-3 0  9993
2 64175  53.1611  15.1036 0001090  67.7858 292.3258 15.30197325 47579
STARLINK-34191          
1 64176U 25113G   26085.09741353  .00017029  00000+0  58551-3 0  9994
2 64176  53.1600  14.4606 0001404  75.3685 284.7471 15.30214251 47586
STARLINK-34164          
1 64177U 25113H   26085.22393400  .00019185  00000+0  65788-3 0  9991
2 64177  53.1603  14.5457 0001165  86.4254 273.6880 15.30216378 47598
STARLINK-34227          
1 64178U 25113J   26085.07327085  .00026234  00000+0  89468-3 0  9995
2 64178  53.1619  15.0247 0001297  85.0081 275.1068 15.30201864 47575
STARLINK-34194          
1 64179U 25113K   26085.23331940  .00029475  00000+0  10027-2 0  9993
2 64179  53.1604  13.8923 0001221  94.2780 265.8361 15.30219386 47606
STARLINK-34000          
1 64180U 25113L   26085.51568314  .00031339  00000+0  10650-2 0  9997
2 64180  53.1651  12.8048 0001521  98.1122 262.0051 15.30222770 47609
STARLINK-33917          
1 64181U 25113M   26085.21549082  .00028182  00000+0  95984-3 0  9992
2 64181  53.1618  14.4884 0001185  61.5093 298.6027 15.30205937 47598
STARLINK-34131          
1 64182U 25113N   26085.20176647  .00034898  00000+0  11833-2 0  9996
2 64182  53.1619  14.3988 0001294  89.9858 270.1291 15.30243042 47551
STARLINK-34188          
1 64183U 25113P   26085.08697437  .00021621  00000+0  74025-3 0  9991
2 64183  53.1616  15.1117 0001374  85.1267 274.9891 15.30188708 47570
STARLINK-34197          
1 64184U 25113Q   26085.22077034  .00021930  00000+0  75041-3 0  9995
2 64184  53.1608  14.5265 0001041  85.6007 274.5112 15.30198445 47590
STARLINK-34063          
1 64185U 25113R   26085.20705001  .00033834  00000+0  11492-2 0  9991
2 64185  53.1619  14.4337 0001430  93.5646 266.5518 15.30202103 47599
STARLINK-34200          
1 64186U 25113S   26085.50935842  .00027721  00000+0  94418-3 0  9991
2 64186  53.1623  12.7637 0001983  82.2470 277.8756 15.30213317 47646
STARLINK-33934          
1 64187U 25113T   26085.21127217  .00031245  00000+0  10626-2 0  9993
2 64187  53.1621  14.4630 0001393  78.0102 282.1055 15.30200811 47553
STARLINK-33929          
1 64188U 25113U   26085.07853244  .00022753  00000+0  77763-3 0  9994
2 64188  53.1623  15.0535 0001683  92.7801 267.3393 15.30214120 47578
